start=new Date('2022-04-22T00:00:00.000Z').valueOf();
sats=[{"SEMIMAJOR_AXIS":"6917.868","OBJECT_ID":"2022-001A","MEAN_MOTION_DDOT":"0.0000000000000","CENTER_NAME":"EARTH","ECCENTRICITY":"0.00017490","INCLINATION":"53.2181","PERIOD":"95.437","SITE":"AFETR","REV_AT_EPOCH":"361","EPHEMERIS_TYPE":"0","TIME_SYSTEM":"UTC","RCS_SIZE":"LARGE","EPOCH":"2022-04-21T22:00:00.999936","MEAN_MOTION_DOT":"-0.00015743","LAUNCH_DATE":"2022-01-06","RA_OF_ASC_NODE":"53.7348","MEAN_ELEMENT_THEORY":"SGP4","OBJECT_NAME":"STARLINK-3321","TLE_LINE1":"1 50803U 22001A   22111.91667824 -.00015743  00000-0 -97308-3 0  9993","COUNTRY_CODE":"US","TLE_LINE2":"2 50803  53.2181  53.7348 0001749  52.7718 296.8044 15.08844174  3614","NORAD_CAT_ID":"50803","DECAY_DATE":null,"CLASSIFICATION_TYPE":"U","APOAPSIS":"540.943","ARG_OF_PERICENTER":"52.7718","PERIAPSIS":"538.523","ELEMENT_SET_NO":"999","FILE":"3410450","MEAN_MOTION":"15.08844174","BSTAR":"-0.00097308000000","OBJECT_TYPE":"PAYLOAD","MEAN_ANOMALY":"296.8044","REF_FRAME":"TEME","GP_ID":"201777786"},{"RA_OF_ASC_NODE":"44.7347","MEAN_MOTION_DOT":"-0.00727497","LAUNCH_DATE":"2022-01-06","RCS_SIZE":"LARGE","EPOCH":"2022-04-21T22:00:00.999936","REV_AT_EPOCH":"365","EPHEMERIS_TYPE":"0","TIME_SYSTEM":"UTC","PERIOD":"94.184","SITE":"AFETR","ECCENTRICITY":"0.00016030","INCLINATION":"53.2176","SEMIMAJOR_AXIS":"6857.170","OBJECT_ID":"2022-001B","CENTER_NAME":"EARTH","MEAN_MOTION_DDOT":"0.0000000000000","GP_ID":"201777531","BSTAR":"-0.02738500000000","REF_FRAME":"TEME","OBJECT_TYPE":"PAYLOAD","MEAN_ANOMALY":"8.8722","ELEMENT_SET_NO":"999","FILE":"3410450","MEAN_MOTION":"15.28922262","APOAPSIS":"480.134","PERIAPSIS":"477.936","ARG_OF_PERICENTER":"40.5193","NORAD_CAT_ID":"50804","DECAY_DATE":null,"CLASSIFICATION_TYPE":"U","OBJECT_NAME":"STARLINK-3323","TLE_LINE2":"2 50804  53.2176  44.7347 0001603  40.5193   8.8722 15.28922262  3654","COUNTRY_CODE":"US","TLE_LINE1":"1 50804U 22001B   22111.91667824 -.00727497  00000-0 -27385-1 0  9996","MEAN_ELEMENT_THEORY":"SGP4"},{"MEAN_MOTION_DOT":"-0.00727433","LAUNCH_DATE":"2022-01-06","RA_OF_ASC_NODE":"44.7348","REV_AT_EPOCH":"365","EPHEMERIS_TYPE":"0","TIME_SYSTEM":"UTC","RCS_SIZE":"LARGE","EPOCH":"2022-04-21T22:00:00.999936","ECCENTRICITY":"0.00017340","INCLINATION":"53.2176","PERIOD":"94.176","SITE":"AFETR","OBJECT_ID":"2022-001C","SEMIMAJOR_AXIS":"6856.788","CENTER_NAME":"EARTH","MEAN_MOTION_DDOT":"0.0000000000000","GP_ID":"201776785","ELEMENT_SET_NO":"999","MEAN_MOTION":"15.29049976","FILE":"3410450","BSTAR":"-0.02727400000000","MEAN_ANOMALY":"27.2118","OBJECT_TYPE":"PAYLOAD","REF_FRAME":"TEME","CLASSIFICATION_TYPE":"U","DECAY_DATE":null,"NORAD_CAT_ID":"50805","APOAPSIS":"479.842","PERIAPSIS":"477.464","ARG_OF_PERICENTER":"36.1203","MEAN_ELEMENT_THEORY":"SGP4","OBJECT_NAME":"STARLINK-3333","COUNTRY_CODE":"US","TLE_LINE2":"2 50805  53.2176  44.7348 0001734  36.1203  27.2118 15.29049976  3651","TLE_LINE1":"1 50805U 22001C   22111.91667824 -.00727433  00000-0 -27274-1 0  9994"},{"CLASSIFICATION_TYPE":"U","DECAY_DATE":null,"NORAD_CAT_ID":"50806","PERIAPSIS":"477.120","ARG_OF_PERICENTER":"39.5216","APOAPSIS":"479.422","MEAN_ELEMENT_THEORY":"SGP4","TLE_LINE2":"2 50806  53.2175  44.7348 0001679  39.5216  37.7126 15.29177687  3656","COUNTRY_CODE":"US","TLE_LINE1":"1 50806U 22001D   22111.91667824 -.00727263  00000-0 -27160-1 0  9990","OBJECT_NAME":"STARLINK-3335","GP_ID":"201777035","FILE":"3410450","MEAN_MOTION":"15.29177687","ELEMENT_SET_NO":"999","REF_FRAME":"TEME","OBJECT_TYPE":"PAYLOAD","MEAN_ANOMALY":"37.7126","BSTAR":"-0.02716000000000","INCLINATION":"53.2175","ECCENTRICITY":"0.00016790","SITE":"AFETR","PERIOD":"94.168","CENTER_NAME":"EARTH","MEAN_MOTION_DDOT":"0.0000000000000","SEMIMAJOR_AXIS":"6856.406","OBJECT_ID":"2022-001D","LAUNCH_DATE":"2022-01-06","MEAN_MOTION_DOT":"-0.00727263","RA_OF_ASC_NODE":"44.7348","EPHEMERIS_TYPE":"0","TIME_SYSTEM":"UTC","REV_AT_EPOCH":"365","EPOCH":"2022-04-21T22:00:00.999936","RCS_SIZE":"LARGE"},{"GP_ID":"201777286","BSTAR":"-0.02667400000000","REF_FRAME":"TEME","OBJECT_TYPE":"PAYLOAD","MEAN_ANOMALY":"97.4033","ELEMENT_SET_NO":"999","FILE":"3410450","MEAN_MOTION":"15.29688038","APOAPSIS":"478.063","ARG_OF_PERICENTER":"35.0557","PERIAPSIS":"475.429","DECAY_DATE":null,"NORAD_CAT_ID":"50807","CLASSIFICATION_TYPE":"U","OBJECT_NAME":"STARLINK-3353","TLE_LINE1":"1 50807U 22001E   22111.91667824 -.00717470  00000-0 -26674-1 0  9999","COUNTRY_CODE":"US","TLE_LINE2":"2 50807  53.2175  44.7341 0001921  35.0557  97.4033 15.29688038  3656","MEAN_ELEMENT_THEORY":"SGP4","RA_OF_ASC_NODE":"44.7341","MEAN_MOTION_DOT":"-0.00717470","LAUNCH_DATE":"2022-01-06","RCS_SIZE":"LARGE","EPOCH":"2022-04-21T22:00:00.999936","REV_AT_EPOCH":"365","TIME_SYSTEM":"UTC","EPHEMERIS_TYPE":"0","PERIOD":"94.137","SITE":"AFETR","ECCENTRICITY":"0.00019210","INCLINATION":"53.2175","SEMIMAJOR_AXIS":"6854.881","OBJECT_ID":"2022-001E","MEAN_MOTION_DDOT":"0.0000000000000","CENTER_NAME":"EARTH"},{"MEAN_MOTION_DOT":"-0.00718259","LAUNCH_DATE":"2022-01-06","RA_OF_ASC_NODE":"44.7346","REV_AT_EPOCH":"365","EPHEMERIS_TYPE":"0","TIME_SYSTEM":"UTC","RCS_SIZE":"LARGE","EPOCH":"2022-04-21T22:00:00.999936","ECCENTRICITY":"0.00017420","INCLINATION":"53.2175","PERIOD":"94.153","SITE":"AFETR","SEMIMAJOR_AXIS":"6855.644","OBJECT_ID":"2022-001F","CENTER_NAME":"EARTH","MEAN_MOTION_DDOT":"0.0000000000000","GP_ID":"201778032","ELEMENT_SET_NO":"999","FILE":"3410450","MEAN_MOTION":"15.29432870","BSTAR":"-0.02691900000000","REF_FRAME":"TEME","OBJECT_TYPE":"PAYLOAD","MEAN_ANOMALY":"66.1490","DECAY_DATE":null,"CLASSIFICATION_TYPE":"U","NORAD_CAT_ID":"50808","APOAPSIS":"478.703","PERIAPSIS":"476.314","ARG_OF_PERICENTER":"38.7744","MEAN_ELEMENT_THEORY":"SGP4","OBJECT_NAME":"STARLINK-3355","COUNTRY_CODE":"US","TLE_LINE2":"2 50808  53.2175  44.7346 0001742  38.7744  66.1490 15.29432870  3652","TLE_LINE1":"1 50808U 22001F   22111.91667824 -.00718259  00000-0 -26919-1 0  9998"},{"EPHEMERIS_TYPE":"0","TIME_SYSTEM":"UTC","REV_AT_EPOCH":"365","EPOCH":"2022-04-21T22:00:00.999936","RCS_SIZE":"LARGE","LAUNCH_DATE":"2022-01-06","MEAN_MOTION_DOT":"-0.00718666","RA_OF_ASC_NODE":"44.7348","MEAN_MOTION_DDOT":"0.0000000000000","CENTER_NAME":"EARTH","SEMIMAJOR_AXIS":"6856.025","OBJECT_ID":"2022-001G","INCLINATION":"53.2175","ECCENTRICITY":"0.00017780","SITE":"AFETR","PERIOD":"94.160","MEAN_MOTION":"15.29305306","FILE":"3410450","ELEMENT_SET_NO":"999","OBJECT_TYPE":"PAYLOAD","MEAN_ANOMALY":"54.6806","REF_FRAME":"TEME","BSTAR":"-0.02704200000000","GP_ID":"201776285","MEAN_ELEMENT_THEORY":"SGP4","TLE_LINE1":"1 50809U 22001G   22111.91667824 -.00718666  00000-0 -27042-1 0  9999","COUNTRY_CODE":"US","TLE_LINE2":"2 50809  53.2175  44.7348 0001778  36.4174  54.6806 15.29305306  3652","OBJECT_NAME":"STARLINK-3232","NORAD_CAT_ID":"50809","DECAY_DATE":null,"CLASSIFICATION_TYPE":"U","ARG_OF_PERICENTER":"36.4174","PERIAPSIS":"476.671","APOAPSIS":"479.109"},{"ELEMENT_SET_NO":"999","FILE":"3410450","MEAN_MOTION":"15.29560492","BSTAR":"-0.02680000000000","REF_FRAME":"TEME","OBJECT_TYPE":"PAYLOAD","MEAN_ANOMALY":"82.2018","GP_ID":"201776535","MEAN_ELEMENT_THEORY":"SGP4","OBJECT_NAME":"STARLINK-3348","COUNTRY_CODE":"US","TLE_LINE2":"2 50810  53.2175  44.7344 0001840  36.5085  82.2018 15.29560492  3653","TLE_LINE1":"1 50810U 22001H   22111.91667824 -.00717958  00000-0 -26800-1 0  9995","NORAD_CAT_ID":"50810","DECAY_DATE":null,"CLASSIFICATION_TYPE":"U","APOAPSIS":"478.389","PERIAPSIS":"475.866","ARG_OF_PERICENTER":"36.5085","REV_AT_EPOCH":"365","TIME_SYSTEM":"UTC","EPHEMERIS_TYPE":"0","RCS_SIZE":"LARGE","EPOCH":"2022-04-21T22:00:00.999936","MEAN_MOTION_DOT":"-0.00717958","LAUNCH_DATE":"2022-01-06","RA_OF_ASC_NODE":"44.7344","OBJECT_ID":"2022-001H","SEMIMAJOR_AXIS":"6855.262","CENTER_NAME":"EARTH","MEAN_MOTION_DDOT":"0.0000000000000","ECCENTRICITY":"0.00018400","INCLINATION":"53.2175","PERIOD":"94.145","SITE":"AFETR"},{"RA_OF_ASC_NODE":"44.7337","LAUNCH_DATE":"2022-01-06","MEAN_MOTION_DOT":"-0.00717028","EPOCH":"2022-04-21T22:00:00.999936","RCS_SIZE":"LARGE","TIME_SYSTEM":"UTC","EPHEMERIS_TYPE":"0","REV_AT_EPOCH":"365","SITE":"AFETR","PERIOD":"94.129","INCLINATION":"53.2175","ECCENTRICITY":"0.00017040","MEAN_MOTION_DDOT":"0.0000000000000","CENTER_NAME":"EARTH","OBJECT_ID":"2022-001J","SEMIMAJOR_AXIS":"6854.500","GP_ID":"201777787","MEAN_ANOMALY":"100.9288","OBJECT_TYPE":"PAYLOAD","REF_FRAME":"TEME","BSTAR":"-0.02655200000000","MEAN_MOTION":"15.29815631","FILE":"3410450","ELEMENT_SET_NO":"999","ARG_OF_PERICENTER":"45.2404","PERIAPSIS":"475.197","APOAPSIS":"477.533","DECAY_DATE":null,"NORAD_CAT_ID":"50811","CLASSIFICATION_TYPE":"U","TLE_LINE1":"1 50811U 22001J   22111.91667824 -.00717028  00000-0 -26552-1 0  9998","COUNTRY_CODE":"US","TLE_LINE2":"2 50811  53.2175  44.7337 0001704  45.2404 100.9288 15.29815631  3652","OBJECT_NAME":"STARLINK-3347","MEAN_ELEMENT_THEORY":"SGP4"},{"PERIOD":"94.197","SITE":"AFETR","ECCENTRICITY":"0.00018270","INCLINATION":"53.2177","OBJECT_ID":"2022-001K","SEMIMAJOR_AXIS":"6857.781","MEAN_MOTION_DDOT":"0.0000000000000","CENTER_NAME":"EARTH","RA_OF_ASC_NODE":"44.7301","MEAN_MOTION_DOT":"-0.00727472","LAUNCH_DATE":"2022-01-06","RCS_SIZE":"LARGE","EPOCH":"2022-04-21T22:00:00.999936","REV_AT_EPOCH":"365","TIME_SYSTEM":"UTC","EPHEMERIS_TYPE":"0","APOAPSIS":"480.898","ARG_OF_PERICENTER":"32.5009","PERIAPSIS":"478.393","DECAY_DATE":null,"CLASSIFICATION_TYPE":"U","NORAD_CAT_ID":"50812","OBJECT_NAME":"STARLINK-3338","TLE_LINE1":"1 50812U 22001K   22111.91667824 -.00727472  00000-0 -27556-1 0  9998","TLE_LINE2":"2 50812  53.2177  44.7301 0001827  32.5009   1.2966 15.28718023  3654","COUNTRY_CODE":"US","MEAN_ELEMENT_THEORY":"SGP4","GP_ID":"201777532","BSTAR":"-0.02755600000000","REF_FRAME":"TEME","OBJECT_TYPE":"PAYLOAD","MEAN_ANOMALY":"1.2966","ELEMENT_SET_NO":"999","MEAN_MOTION":"15.28718023","FILE":"3410450"}];
